OBJECT_NAME,OBJECT_ID,EPOCH,MEAN_MOTION,ECCENTRICITY,INCLINATION,RA_OF_ASC_NODE,ARG_OF_PERICENTER,MEAN_ANOMALY,EPHEMERIS_TYPE,CLASSIFICATION_TYPE,NORAD_CAT_ID,ELEMENT_SET_NO,REV_AT_EPOCH,BSTAR,MEAN_MOTION_DOT,MEAN_MOTION_DDOT
STARLINK-36688,2026-022J,2026-07-05T01:25:39.440064,15.33496556,.00009997,97.2835,218.7938,107.5568,252.5784,0,U,67656,999,2356,.1082528E-2,.35092E-3,0
STARLINK-36706,2026-022K,2026-07-05T00:54:19.320768,15.33519740,.00008339,97.2839,218.6697,132.6529,227.4784,0,U,67657,999,2355,.1145917E-2,.37189E-3,0
STARLINK-36701,2026-022L,2026-07-05T00:42:34.167168,15.33495968,.00014701,97.2826,218.6801,90.8698,269.2713,0,U,67658,999,2355,.1849738E-2,.60216E-3,0
STARLINK-36642,2026-022M,2026-07-05T02:04:47.717760,15.33503382,.00010289,97.2834,218.7538,75.6741,284.4616,0,U,67659,999,2356,.14511523E-2,.47153E-3,0
STARLINK-36673,2026-022N,2026-07-04T19:37:10.653888,15.33470534,.00004807,97.2831,218.5086,106.8107,253.3189,0,U,67660,999,2352,.13728031E-2,.44542E-3,0
STARLINK-36674,2026-022P,2026-07-05T01:41:17.958336,15.33479645,.00012898,97.2837,218.7794,99.2805,260.8584,0,U,67661,999,2356,.11814842E-2,.38303E-3,0
STARLINK-36700,2026-022Q,2026-07-05T01:17:48.579072,15.33480738,.00008022,97.2837,218.8021,98.5065,261.6269,0,U,67662,999,2356,.10020282E-2,.3245E-3,0
STARLINK-36675,2026-022R,2026-07-05T01:29:33.263520,15.33479278,.00008307,97.2850,218.7915,106.7965,253.3369,0,U,67663,999,2356,.14715497E-2,.47785E-3,0
STARLINK-36404,2026-022S,2026-07-05T01:09:58.839552,15.33500582,.00006954,97.2845,218.6554,89.0037,271.1285,0,U,67664,999,2355,.19599042E-2,.63846E-3,0
STARLINK-36399,2026-022T,2026-07-05T01:06:04.703328,15.33449259,.00007237,97.2835,218.6607,96.8928,263.2397,0,U,67665,999,2355,.40433467E-3,.13003E-3,0
STARLINK-36365,2026-022U,2026-07-05T00:58:13.967616,15.33486861,.00014505,97.2821,218.6669,108.7704,251.3696,0,U,67666,999,2355,.15796651E-2,.51338E-3,0
STARLINK-36622,2026-022V,2026-07-05T02:20:27.044736,15.33484015,.00006427,97.2840,218.7415,103.5443,256.5872,0,U,67667,999,2356,.10093313E-2,.32691E-3,0
STARLINK-36625,2026-022W,2026-07-04T19:52:50.415456,15.33473966,.00003737,97.2833,218.4963,181.8625,178.2616,0,U,67668,999,2352,.947423E-3,.30663E-3,0
STARLINK-36639,2026-022X,2026-07-05T01:56:59.656128,15.33466246,.00012992,97.2835,218.7657,99.8892,260.2497,0,U,67669,999,2356,.10533386E-2,.34107E-3,0
STARLINK-36596,2026-022Y,2026-07-05T01:45:12.961152,15.33476887,.00014339,97.2841,218.7751,95.4954,264.6453,0,U,67670,999,2356,.13098169E-2,.42492E-3,0
STARLINK-36297,2026-022Z,2026-07-05T01:21:43.409088,15.33476373,.00008699,97.2835,218.7983,92.7308,267.4034,0,U,67671,999,2356,.89417328E-3,.28931E-3,0
STARLINK-36616,2026-022AA,2026-07-05T01:33:28.224000,15.33483838,.00009164,97.2842,218.7882,83.3191,276.8156,0,U,67672,999,2356,.11270249E-2,.3653E-3,0
COSMOS 2600,2026-023A,2026-07-04T22:16:45.472512,15.82933076,.00075765,96.7443,258.0883,221.5893,138.4802,0,U,67674,999,2359,.37428938E-3,.79779E-3,0
COSMOS 2601,2026-023B,2026-07-05T03:52:18.397056,15.25589322,.00186668,96.6232,245.5992,77.7195,282.6134,0,U,67675,999,2275,.70641192E-3,.17993E-3,0
COSMOS 2602,2026-023C,2026-07-05T03:45:46.537632,15.25615436,.00191761,96.6272,245.6893,68.2954,292.0326,0,U,67676,999,2291,.67787695E-3,.1728E-3,0
COSMOS 2603,2026-023D,2026-07-05T04:19:09.046848,15.25397418,.00191453,96.6300,245.6975,74.6747,285.6607,0,U,67677,999,2274,.566971E-3,.14343E-3,0
COSMOS 2604,2026-023E,2026-07-05T03:31:40.780128,15.25772426,.00192862,96.6191,245.5392,71.7986,288.5351,0,U,67678,999,2274,.68946385E-3,.17662E-3,0
COSMOS 2605,2026-023F,2026-07-05T03:15:00.415872,15.25904025,.00207747,96.6210,248.0720,66.2676,294.0740,0,U,67679,999,2273,.80052674E-3,.20624E-3,0
COSMOS 2606,2026-023G,2026-07-05T03:20:33.176832,15.25778476,.00219125,96.6138,247.9335,61.2347,299.1091,0,U,67680,999,2273,.70224606E-3,.18023E-3,0
COSMOS 2607,2026-023H,2026-07-05T03:45:07.960896,15.25489622,.00227385,96.6285,248.1831,61.7367,298.6164,0,U,67681,999,2273,.60110782E-3,.15287E-3,0
COSMOS 2608,2026-023J,2026-07-05T03:16:22.697184,15.25866031,.0022073,96.6238,248.1320,57.7842,302.5535,0,U,67682,999,2273,.73954518E-3,.19038E-3,0
KNACKSAT-2,1998-067XZ,2026-07-05T02:04:30.011808,15.61628569,.00083242,51.6258,204.3384,292.4165,67.5946,0,U,67683,999,2307,.80434196E-3,.70784E-3,0
CORAL,1998-067YA,2026-07-04T08:03:50.354208,15.84392769,.00083033,51.6176,199.2384,342.8869,17.1853,0,U,67684,999,2307,.17659756E-2,.432913E-2,0
GXIBA-1,1998-067YB,2026-07-04T16:26:23.682048,15.63508142,.00091206,51.6245,205.3988,288.6860,71.3144,0,U,67685,999,2302,.10009482E-2,.95277E-3,0
UITMSAT-2,1998-067YC,2026-07-05T00:55:43.889952,15.67659314,.00045067,51.6231,201.7550,297.8833,62.1707,0,U,67686,999,2310,.11252334E-2,.126915E-2,0
