STARLINK-36688          
1 67656U 26022J   26186.05948426  .00035092  00000+0  10825-2 0  9999
2 67656  97.2835 218.7938 0000999 107.5568 252.5784 15.33496556 23569
STARLINK-36706          
1 67657U 26022K   26186.03772362  .00037189  00000+0  11459-2 0  9995
2 67657  97.2839 218.6697 0000833 132.6529 227.4784 15.33519740 23559
STARLINK-36701          
1 67658U 26022L   26186.02956212  .00060216  00000+0  18497-2 0  9999
2 67658  97.2826 218.6801 0001470  90.8698 269.2713 15.33495968 23554
STARLINK-36642          
1 67659U 26022M   26186.08666340  .00047153  00000+0  14512-2 0  9995
2 67659  97.2834 218.7538 0001028  75.6741 284.4616 15.33503382 23563
STARLINK-36673          
1 67660U 26022N   26185.81748442  .00044542  00000+0  13728-2 0  9998
2 67660  97.2831 218.5086 0000480 106.8107 253.3189 15.33470534 23520
STARLINK-36674          
1 67661U 26022P   26186.07034674  .00038303  00000+0  11815-2 0  9996
2 67661  97.2837 218.7794 0001289  99.2805 260.8584 15.33479645 23561
STARLINK-36700          
1 67662U 26022Q   26186.05403448  .00032450  00000+0  10020-2 0  9998
2 67662  97.2837 218.8021 0000802  98.5065 261.6269 15.33480738 23560
STARLINK-36675          
1 67663U 26022R   26186.06219055  .00047785  00000+0  14715-2 0  9991
2 67663  97.2850 218.7915 0000830 106.7965 253.3369 15.33479278 23565
STARLINK-36404          
1 67664U 26022S   26186.04859768  .00063846  00000+0  19599-2 0  9992
2 67664  97.2845 218.6554 0000695  89.0037 271.1285 15.33500582 23557
STARLINK-36399          
1 67665U 26022T   26186.04588777  .00013003  00000+0  40433-3 0  9994
2 67665  97.2835 218.6607 0000723  96.8928 263.2397 15.33449259 23552
STARLINK-36365          
1 67666U 26022U   26186.04043944  .00051338  00000+0  15797-2 0  9994
2 67666  97.2821 218.6669 0001450 108.7704 251.3696 15.33486861 23559
STARLINK-36622          
1 67667U 26022V   26186.09753524  .00032691  00000+0  10093-2 0  9997
2 67667  97.2840 218.7415 0000642 103.5443 256.5872 15.33484015 23569
STARLINK-36625          
1 67668U 26022W   26185.82836129  .00030663  00000+0  94742-3 0  9992
2 67668  97.2833 218.4963 0000373 181.8625 178.2616 15.33473966 23524
STARLINK-36639          
1 67669U 26022X   26186.08124602  .00034107  00000+0  10533-2 0  9990
2 67669  97.2835 218.7657 0001299  99.8892 260.2497 15.33466246 23568
STARLINK-36596          
1 67670U 26022Y   26186.07306668  .00042492  00000+0  13098-2 0  9990
2 67670  97.2841 218.7751 0001433  95.4954 264.6453 15.33476887 23565
STARLINK-36297          
1 67671U 26022Z   26186.05675242  .00028931  00000+0  89417-3 0  9997
2 67671  97.2835 218.7983 0000869  92.7308 267.4034 15.33476373 23567
STARLINK-36616          
1 67672U 26022AA  26186.06491000  .00036530  00000+0  11270-2 0  9992
2 67672  97.2842 218.7882 0000916  83.3191 276.8156 15.33483838 23566
COSMOS 2600             
1 67674U 26023A   26185.92830408  .00079779  00000+0  37429-3 0  9995
2 67674  96.7443 258.0883 0007576 221.5893 138.4802 15.82933076 23593
COSMOS 2601             
1 67675U 26023B   26186.16132404  .00017993  00000+0  70641-3 0  9997
2 67675  96.6232 245.5992 0018666  77.7195 282.6134 15.25589322 22754
COSMOS 2602             
1 67676U 26023C   26186.15678863  .00017280  00000+0  67788-3 0  9998
2 67676  96.6272 245.6893 0019176  68.2954 292.0326 15.25615436 22917
COSMOS 2603             
1 67677U 26023D   26186.17996582  .00014343  00000+0  56697-3 0  9996
2 67677  96.6300 245.6975 0019145  74.6747 285.6607 15.25397418 22746
COSMOS 2604             
1 67678U 26023E   26186.14699977  .00017662  00000+0  68946-3 0  9999
2 67678  96.6191 245.5392 0019286  71.7986 288.5351 15.25772426 22740
COSMOS 2605             
1 67679U 26023F   26186.13542148  .00020624  00000+0  80053-3 0  9991
2 67679  96.6210 248.0720 0020774  66.2676 294.0740 15.25904025 22730
COSMOS 2606             
1 67680U 26023G   26186.13927288  .00018023  00000+0  70225-3 0  9995
2 67680  96.6138 247.9335 0021912  61.2347 299.1091 15.25778476 22730
COSMOS 2607             
1 67681U 26023H   26186.15634214  .00015287  00000+0  60111-3 0  9994
2 67681  96.6285 248.1831 0022738  61.7367 298.6164 15.25489622 22739
COSMOS 2608             
1 67682U 26023J   26186.13637381  .00019038  00000+0  73955-3 0  9999
2 67682  96.6238 248.1320 0022073  57.7842 302.5535 15.25866031 22736
KNACKSAT-2              
1 67683U 98067XZ  26186.08645847  .00070784  00000+0  80434-3 0  9992
2 67683  51.6258 204.3384 0008324 292.4165  67.5946 15.61628569 23077
CORAL                   
1 67684U 98067YA  26185.33599947  .00432913  00000+0  17660-2 0  9995
2 67684  51.6176 199.2384 0008303 342.8869  17.1853 15.84392769 23070
GXIBA-1                 
1 67685U 98067YB  26185.68499632  .00095277  00000+0  10009-2 0  9992
2 67685  51.6245 205.3988 0009120 288.6860  71.3144 15.63508142 23024
UITMSAT-2               
1 67686U 98067YC  26186.03870243  .00126915  00000+0  11252-2 0  9999
2 67686  51.6231 201.7550 0004506 297.8833  62.1707 15.67659314 23104
